{
  "type": "FeatureCollection",
  "features": [
    {
      "type": "Feature",
      "properties": {
        "norad_id": 66828,
        "name": "STARLINK-35982",
        "group": "last-30-days",
        "lat": -68.11150523281692,
        "lon": 121.79500099974724,
        "alt_km": 379.2733067529389,
        "timestamp": "2025-12-16T23:36:34.924447+00:00",
        "meta_object_name": "STARLINK-35982",
        "meta_object_id": "2025-280H",
        "meta_epoch": "2025-12-16T06:00:02.999808",
        "meta_mean_motion": 15.6747613,
        "meta_eccentricity": 0.00036664,
        "meta_inclination": 69.9984,
        "meta_ra_of_asc_node": 188.8929,
        "meta_arg_of_pericenter": 275.2356,
        "meta_mean_anomaly": 188.9623,
        "meta_ephemeris_type": 0,
        "meta_classification_type": "U",
        "meta_norad_cat_id": 66828,
        "meta_element_set_no": 999,
        "meta_rev_at_epoch": 346,
        "meta_bstar": -0.02029278,
        "meta_mean_motion_dot": -0.01953307,
        "meta_mean_motion_ddot": 0,
        "tle_line1": "1 66828U 25280H   25350.25003472 -.01953307  00000+0 -20293-1 0  9991",
        "tle_line2": "2 66828  69.9984 188.8929 0003666 275.2356 188.9623 15.67476130  3463"
      },
      "geometry": {
        "type": "Point",
        "coordinates": [
          121.79500099974724,
          -68.11150523281692
        ]
      }
    },
    {
      "type": "Feature",
      "properties": {
        "norad_id": 66829,
        "name": "STARLINK-36084",
        "group": "last-30-days",
        "lat": -68.80303069725976,
        "lon": 116.91342069869287,
        "alt_km": 379.30656707568323,
        "timestamp": "2025-12-16T23:36:34.924457+00:00",
        "meta_object_name": "STARLINK-36084",
        "meta_object_id": "2025-280J",
        "meta_epoch": "2025-12-16T06:00:02.999808",
        "meta_mean_motion": 15.67480758,
        "meta_eccentricity": 0.00036575,
        "meta_inclination": 69.9983,
        "meta_ra_of_asc_node": 188.8947,
        "meta_arg_of_pericenter": 275.3852,
        "meta_mean_anomaly": 186.8935,
        "meta_ephemeris_type": 0,
        "meta_classification_type": "U",
        "meta_norad_cat_id": 66829,
        "meta_element_set_no": 999,
        "meta_rev_at_epoch": 330,
        "meta_bstar": -0.020377647,
        "meta_mean_motion_dot": -0.01960848,
        "meta_mean_motion_ddot": 0,
        "tle_line1": "1 66829U 25280J   25350.25003472 -.01960848  00000+0 -20378-1 0  9994",
        "tle_line2": "2 66829  69.9983 188.8947 0003657 275.3852 186.8935 15.67480758  3302"
      },
      "geometry": {
        "type": "Point",
        "coordinates": [
          116.91342069869287,
          -68.80303069725976
        ]
      }
    },
    {
      "type": "Feature",
      "properties": {
        "norad_id": 66830,
        "name": "STARLINK-35881",
        "group": "last-30-days",
        "lat": -67.28932903074504,
        "lon": 126.34090976047979,
        "alt_km": 379.2994761652235,
        "timestamp": "2025-12-16T23:36:34.924467+00:00",
        "meta_object_name": "STARLINK-35881",
        "meta_object_id": "2025-280K",
        "meta_epoch": "2025-12-16T06:00:02.999808",
        "meta_mean_motion": 15.67481225,
        "meta_eccentricity": 0.00036253,
        "meta_inclination": 69.9984,
        "meta_ra_of_asc_node": 188.8896,
        "meta_arg_of_pericenter": 276.5628,
        "meta_mean_anomaly": 189.5461,
        "meta_ephemeris_type": 0,
        "meta_classification_type": "U",
        "meta_norad_cat_id": 66830,
        "meta_element_set_no": 999,
        "meta_rev_at_epoch": 346,
        "meta_bstar": -0.020334579,
        "meta_mean_motion_dot": -0.01957185,
        "meta_mean_motion_ddot": 0,
        "tle_line1": "1 66830U 25280K   25350.25003472 -.01957185  00000+0 -20335-1 0  9999",
        "tle_line2": "2 66830  69.9984 188.8896 0003625 276.5628 189.5461 15.67481225  3468"
      },
      "geometry": {
        "type": "Point",
        "coordinates": [
          126.34090976047979,
          -67.28932903074504
        ]
      }
    },
    {
      "type": "Feature",
      "properties": {
        "norad_id": 66831,
        "name": "STARLINK-35788",
        "group": "last-30-days",
        "lat": -66.34555355587518,
        "lon": 130.57315446283704,
        "alt_km": 379.21407248932155,
        "timestamp": "2025-12-16T23:36:34.924477+00:00",
        "meta_object_name": "STARLINK-35788",
        "meta_object_id": "2025-280L",
        "meta_epoch": "2025-12-16T06:00:02.999808",
        "meta_mean_motion": 15.67476715,
        "meta_eccentricity": 0.00037357,
        "meta_inclination": 69.9982,
        "meta_ra_of_asc_node": 188.8886,
        "meta_arg_of_pericenter": 276.582,
        "meta_mean_anomaly": 191.4488,
        "meta_ephemeris_type": 0,
        "meta_classification_type": "U",
        "meta_norad_cat_id": 66831,
        "meta_element_set_no": 999,
        "meta_rev_at_epoch": 346,
        "meta_bstar": -0.020300176,
        "meta_mean_motion_dot": -0.01954046,
        "meta_mean_motion_ddot": 0,
        "tle_line1": "1 66831U 25280L   25350.25003472 -.01954046  00000+0 -20300-1 0  9995",
        "tle_line2": "2 66831  69.9982 188.8886 0003735 276.5820 191.4488 15.67476715  3461"
      },
      "geometry": {
        "type": "Point",
        "coordinates": [
          130.57315446283704,
          -66.34555355587518
        ]
      }
    },
    {
      "type": "Feature",
      "properties": {
        "norad_id": 66832,
        "name": "STARLINK-35768",
        "group": "last-30-days",
        "lat": -65.29998859171933,
        "lon": 134.46523016848937,
        "alt_km": 379.3593059692257,
        "timestamp": "2025-12-16T23:36:34.924487+00:00",
        "meta_object_name": "STARLINK-35768",
        "meta_object_id": "2025-280M",
        "meta_epoch": "2025-12-16T06:00:02.999808",
        "meta_mean_motion": 15.67483066,
        "meta_eccentricity": 0.0003581,
        "meta_inclination": 69.9983,
        "meta_ra_of_asc_node": 188.885,
        "meta_arg_of_pericenter": 274.6424,
        "meta_mean_anomaly": 195.3006,
        "meta_ephemeris_type": 0,
        "meta_classification_type": "U",
        "meta_norad_cat_id": 66832,
        "meta_element_set_no": 999,
        "meta_rev_at_epoch": 346,
        "meta_bstar": -0.020399432,
        "meta_mean_motion_dot": -0.0196279,
        "meta_mean_motion_ddot": 0,
        "tle_line1": "1 66832U 25280M   25350.25003472 -.01962790  00000+0 -20399-1 0  9999",
        "tle_line2": "2 66832  69.9983 188.8850 0003581 274.6424 195.3006 15.67483066  3468"
      },
      "geometry": {
        "type": "Point",
        "coordinates": [
          134.46523016848937,
          -65.29998859171933
        ]
      }
    },
    {
      "type": "Feature",
      "properties": {
        "norad_id": 66833,
        "name": "STARLINK-35858",
        "group": "last-30-days",
        "lat": -64.16063018491276,
        "lon": 138.05317397523285,
        "alt_km": 379.40805985757834,
        "timestamp": "2025-12-16T23:36:34.924498+00:00",
        "meta_object_name": "STARLINK-35858",
        "meta_object_id": "2025-280N",
        "meta_epoch": "2025-12-16T06:00:02.999808",
        "meta_mean_motion": 15.67485453,
        "meta_eccentricity": 0.00035462,
        "meta_inclination": 69.9985,
        "meta_ra_of_asc_node": 188.8835,
        "meta_arg_of_pericenter": 273.8403,
        "meta_mean_anomaly": 198.0187,
        "meta_ephemeris_type": 0,
        "meta_classification_type": "U",
        "meta_norad_cat_id": 66833,
        "meta_element_set_no": 999,
        "meta_rev_at_epoch": 346,
        "meta_bstar": -0.020453094,
        "meta_mean_motion_dot": -0.01967487,
        "meta_mean_motion_ddot": 0,
        "tle_line1": "1 66833U 25280N   25350.25003472 -.01967487  00000+0 -20453-1 0  9999",
        "tle_line2": "2 66833  69.9985 188.8835 0003546 273.8403 198.0187 15.67485453  3465"
      },
      "geometry": {
        "type": "Point",
        "coordinates": [
          138.05317397523285,
          -64.16063018491276
        ]
      }
    },
    {
      "type": "Feature",
      "properties": {
        "norad_id": 66834,
        "name": "STARLINK-35840",
        "group": "last-30-days",
        "lat": -62.93630273040881,
        "lon": 141.3550795441133,
        "alt_km": 379.39936928196676,
        "timestamp": "2025-12-16T23:36:34.924524+00:00",
        "meta_object_name": "STARLINK-35840",
        "meta_object_id": "2025-280P",
        "meta_epoch": "2025-12-16T06:00:02.999808",
        "meta_mean_motion": 15.67484689,
        "meta_eccentricity": 0.00035496,
        "meta_inclination": 69.9983,
        "meta_ra_of_asc_node": 188.8803,
        "meta_arg_of_pericenter": 274.1427,
        "meta_mean_anomaly": 199.6328,
        "meta_ephemeris_type": 0,
        "meta_classification_type": "U",
        "meta_norad_cat_id": 66834,
        "meta_element_set_no": 999,
        "meta_rev_at_epoch": 346,
        "meta_bstar": -0.020437544,
        "meta_mean_motion_dot": -0.01966114,
        "meta_mean_motion_ddot": 0,
        "tle_line1": "1 66834U 25280P   25350.25003472 -.01966114  00000+0 -20438-1 0  9999",
        "tle_line2": "2 66834  69.9983 188.8803 0003549 274.1427 199.6328 15.67484689  3466"
      },
      "geometry": {
        "type": "Point",
        "coordinates": [
          141.3550795441133,
          -62.93630273040881
        ]
      }
    }
  ]
}